2026-134A               
1 69538U 26134A   26194.64065377  .00002420  00000+0  15490-3 0  9996
2 69538  97.7005 264.8493 0015943 175.9385 184.1976 15.09452984  4307
2026-134B               
1 69539U 26134B   26194.63770126  .00002437  00000+0  15528-3 0  9991
2 69539  97.6978 264.8443 0016057 178.3909 181.7374 15.09609403  4290
2026-134C               
1 69540U 26134C   26194.63710287  .00002498  00000+0  15898-3 0  9992
2 69540  97.6986 264.8472 0015542 179.5077 180.6169 15.09641736  4295
2026-134D               
1 69541U 26134D   26194.63602035  .00002495  00000+0  15851-3 0  9990
2 69541  97.7024 264.8626 0016579 179.5104 180.6144 15.09699432  4292
2026-134E               
1 69542U 26134E   26194.56932791  .00002449  00000+0  15560-3 0  9994
2 69542  97.7044 264.8033 0016310 180.2387 179.8837 15.09720677  4286
2026-134F               
1 69543U 26134F   26194.63474455  .00002505  00000+0  15888-3 0  9997
2 69543  97.6997 264.8543 0015607 181.7327 178.3850 15.09766365  4291
2026-134G               
1 69544U 26134G   26194.63315929  .00002655  00000+0  16771-3 0  9996
2 69544  97.7041 264.8718 0016052 182.5157 177.5994 15.09851680  4297
2026-134H               
1 69545U 26134H   26194.56564284  .00002633  00000+0  16609-3 0  9995
2 69545  97.7026 264.8020 0015907 184.1179 175.9921 15.09917778  4278
STARLINK-37880          
1 69546U 26135A   26194.58334491  .00025180  00000+0  46315-3 0  9993
2 69546  97.2844 222.8620 0000503 153.2972 186.6556 15.49189410  5548
STARLINK-37881          
1 69547U 26135B   26194.58334491  .00039822  00000+0  73057-3 0  9995
2 69547  97.2844 222.9541 0001351  68.0054 129.3663 15.49173186  5544
STARLINK-37265          
1 69548U 26135C   26194.58334491 -.02391500  00000+0 -38652-1 0  9994
2 69548  97.2847 223.0331 0001017  99.8772 271.4037 15.56480383  5547
STARLINK-37871          
1 69549U 26135D   26194.58334491 -.02539004  00000+0 -49263-1 0  9998
2 69549  97.2843 222.9494 0002412  57.4685 118.5810 15.51086202  5542
STARLINK-37865          
1 69550U 26135E   26194.58334491 -.02274496  00000+0 -44756-1 0  9993
2 69550  97.2843 222.9601 0002203  74.3220 129.7583 15.50890368  5541
STARLINK-37862          
1 69551U 26135F   26194.58334491 -.02422910  00000+0 -36139-1 0  9996
2 69551  97.2845 223.0196 0001535 106.7358 230.2380 15.58656463  5552
STARLINK-37861          
1 69552U 26135G   26194.58334491  .00045398  00000+0  83342-3 0  9994
2 69552  97.2840 222.9812 0000617 125.4654 134.7144 15.49126399  5554
STARLINK-37859          
1 69553U 26135H   26194.58334491 -.00780968  00000+0 -14279-1 0  9997
2 69553  97.2935 222.9969 0001384  91.8011 202.8570 15.51693498  5550
STARLINK-37860          
1 69554U 26135J   26194.58334491 -.03049425  00000+0 -53324-1 0  9991
2 69554  97.2843 223.0319 0001159 112.1180 266.3169 15.54693421  5552
STARLINK-37858          
1 69555U 26135K   26194.58334491 -.02305918  00000+0 -41525-1 0  9993
2 69555  97.2848 223.0286 0001353 113.7829 236.6604 15.53406451  5552
STARLINK-37927          
1 69556U 26135L   26194.58334491  .00040502  00000+0  74301-3 0  9995
2 69556  97.2840 222.9751 0001147  93.5242 151.9296 15.49170716  5558
STARLINK-37929          
1 69557U 26135M   26194.58334491  .00031267  00000+0  57421-3 0  9998
2 69557  97.2847 222.9344 0001603 102.4347  46.0343 15.49191700  5550
STARLINK-37954          
1 69558U 26135N   26194.58334491  .00034264  00000+0  62883-3 0  9997
2 69558  97.2845 222.9378 0000908  99.1444  56.1475 15.49193542  5557
STARLINK-37958          
1 69559U 26135P   26194.58334491 -.02625181  00000+0 -38240-1 0  9994
2 69559  97.2841 223.0789 0001713  87.6091  39.7694 15.59599711  5556
STARLINK-37950          
1 69560U 26135Q   26194.58334491 -.02205861  00000+0 -39470-1 0  9991
2 69560  97.2844 223.0379 0001595  85.1124 291.7432 15.53414604  5555
STARLINK-37952          
1 69561U 26135R   26194.58334491  .00031811  00000+0  58434-3 0  9993
2 69561  97.2839 222.9874 0001477  78.3255 193.7910 15.49182295  5551
STARLINK-37935          
1 69562U 26135S   26194.58334491  .00038945  00000+0  71433-3 0  9993
2 69562  97.2845 222.9426 0001681  93.3166  71.6063 15.49183065  5556
STARLINK-37936          
1 69563U 26135T   26194.58334491  .00037162  00000+0  68155-3 0  9991
2 69563  97.2840 222.9757 0001671  90.7203 152.1504 15.49196432  5558
STARLINK-37932          
1 69564U 26135U   26194.58334491 -.02405152  00000+0 -41915-1 0  9997
2 69564  97.2850 223.0745 0001240  76.0529  29.2637 15.54467717  5553
STARLINK-37916          
1 69565U 26135V   26194.58334491 -.03435588  00000+0 -65513-1 0  9995
2 69565  97.2843 223.0365 0001001  82.1235 294.0734 15.52133265  5557
STARLINK-37909          
1 69566U 26135W   26194.58334491 -.02592176  00000+0 -37364-1 0  9995
2 69566  97.2840 223.1228 0001784  81.4191 147.8424 15.59819300  5554
STARLINK-37934          
1 69567U 26135X   26194.58334491  .00033362  00000+0  61295-3 0  9991
2 69567  97.2844 223.0353 0001142  78.1729 302.8175 15.49167702  5552
